start=new Date('2022-07-16T00:00:00.000Z').valueOf();
sats=[{"PERIOD":"95.592","SITE":"AFETR","ARG_OF_PERICENTER":"85.6436","ELEMENT_SET_NO":"999","OBJECT_ID":"2020-070AF","MEAN_MOTION_DOT":"0.00001764","TIME_SYSTEM":"UTC","MEAN_MOTION_DDOT":"0.0000000000000","LAUNCH_DATE":"2020-10-06","REV_AT_EPOCH":"9882","EPOCH":"2022-07-15T20:29:52.149120","SEMIMAJOR_AXIS":"6925.354","PERIAPSIS":"546.134","OBJECT_TYPE":"PAYLOAD","DECAY_DATE":null,"FILE":"3514839","INCLINATION":"53.0545","OBJECT_NAME":"STARLINK-1709","GP_ID":"208199795","RA_OF_ASC_NODE":"24.9750","COUNTRY_CODE":"US","MEAN_ELEMENT_THEORY":"SGP4","APOAPSIS":"548.303","CENTER_NAME":"EARTH","ECCENTRICITY":"0.00015660","BSTAR":"0.00013729000000","NORAD_CAT_ID":"46561","CLASSIFICATION_TYPE":"U","REF_FRAME":"TEME","MEAN_MOTION":"15.06398363","EPHEMERIS_TYPE":"0","TLE_LINE1":"1 46561U 20070AF  22196.85407580  .00001764  00000-0  13729-3 0  9991","MEAN_ANOMALY":"274.4732","RCS_SIZE":"LARGE","TLE_LINE2":"2 46561  53.0545  24.9750 0001566  85.6436 274.4732 15.06398363 98823"},{"NORAD_CAT_ID":"46562","BSTAR":"0.00005047400000","CENTER_NAME":"EARTH","ECCENTRICITY":"0.00014640","APOAPSIS":"548.239","MEAN_ELEMENT_THEORY":"SGP4","COUNTRY_CODE":"US","RA_OF_ASC_NODE":"20.2421","OBJECT_NAME":"STARLINK-1714","GP_ID":"208201047","TLE_LINE2":"2 46562  53.0549  20.2421 0001464  87.4987 272.6170 15.06396367 98884","RCS_SIZE":"LARGE","MEAN_ANOMALY":"272.6170","TLE_LINE1":"1 46562U 20070AG  22196.78634681  .00000470  00000-0  50474-4 0  9990","EPHEMERIS_TYPE":"0","MEAN_MOTION":"15.06396367","REF_FRAME":"TEME","CLASSIFICATION_TYPE":"U","REV_AT_EPOCH":"9888","LAUNCH_DATE":"2020-10-06","MEAN_MOTION_DDOT":"0.0000000000000","TIME_SYSTEM":"UTC","MEAN_MOTION_DOT":"0.00000470","OBJECT_ID":"2020-070AG","ARG_OF_PERICENTER":"87.4987","ELEMENT_SET_NO":"999","SITE":"AFETR","PERIOD":"95.592","INCLINATION":"53.0549","FILE":"3514839","DECAY_DATE":null,"PERIAPSIS":"546.211","OBJECT_TYPE":"PAYLOAD","SEMIMAJOR_AXIS":"6925.360","EPOCH":"2022-07-15T18:52:20.364384"},{"NORAD_CAT_ID":"46563","BSTAR":"0.00013355000000","CENTER_NAME":"EARTH","ECCENTRICITY":"0.00014720","MEAN_ELEMENT_THEORY":"SGP4","COUNTRY_CODE":"US","APOAPSIS":"548.245","RA_OF_ASC_NODE":"20.0493","OBJECT_NAME":"STARLINK-1730","GP_ID":"208201298","TLE_LINE2":"2 46563  53.0558  20.0493 0001472  77.1741 282.9412 15.06396177 98898","RCS_SIZE":"LARGE","MEAN_ANOMALY":"282.9412","EPHEMERIS_TYPE":"0","TLE_LINE1":"1 46563U 20070AH  22196.83520565  .00001708  00000-0  13355-3 0  9993","REF_FRAME":"TEME","MEAN_MOTION":"15.06396177","CLASSIFICATION_TYPE":"U","LAUNCH_DATE":"2020-10-06","REV_AT_EPOCH":"9889","TIME_SYSTEM":"UTC","MEAN_MOTION_DDOT":"0.0000000000000","OBJECT_ID":"2020-070AH","MEAN_MOTION_DOT":"0.00001708","SITE":"AFETR","ARG_OF_PERICENTER":"77.1741","ELEMENT_SET_NO":"999","PERIOD":"95.592","FILE":"3514839","INCLINATION":"53.0558","DECAY_DATE":null,"OBJECT_TYPE":"PAYLOAD","PERIAPSIS":"546.206","EPOCH":"2022-07-15T20:02:41.768160","SEMIMAJOR_AXIS":"6925.360"},{"INCLINATION":"53.0553","FILE":"3514839","DECAY_DATE":null,"PERIAPSIS":"546.225","OBJECT_TYPE":"PAYLOAD","EPOCH":"2022-07-15T19:36:10.062432","SEMIMAJOR_AXIS":"6925.442","LAUNCH_DATE":"2020-10-06","REV_AT_EPOCH":"9889","TIME_SYSTEM":"UTC","MEAN_MOTION_DDOT":"0.0000000000000","OBJECT_ID":"2020-070AJ","MEAN_MOTION_DOT":"0.00008531","SITE":"AFETR","ELEMENT_SET_NO":"999","ARG_OF_PERICENTER":"80.3369","PERIOD":"95.594","TLE_LINE2":"2 46564  53.0553  20.1122 0001562  80.3369 279.7797 15.06369477 98899","RCS_SIZE":"LARGE","MEAN_ANOMALY":"279.7797","EPHEMERIS_TYPE":"0","TLE_LINE1":"1 46564U 20070AJ  22196.81678313  .00008531  00000-0  59142-3 0  9992","REF_FRAME":"TEME","MEAN_MOTION":"15.06369477","CLASSIFICATION_TYPE":"U","NORAD_CAT_ID":"46564","BSTAR":"0.00059142000000","ECCENTRICITY":"0.00015620","CENTER_NAME":"EARTH","MEAN_ELEMENT_THEORY":"SGP4","COUNTRY_CODE":"US","APOAPSIS":"548.389","RA_OF_ASC_NODE":"20.1122","GP_ID":"208200046","OBJECT_NAME":"STARLINK-1733"},{"RA_OF_ASC_NODE":"20.2247","GP_ID":"208200296","OBJECT_NAME":"STARLINK-1735","CENTER_NAME":"EARTH","ECCENTRICITY":"0.00013230","APOAPSIS":"548.154","MEAN_ELEMENT_THEORY":"SGP4","COUNTRY_CODE":"US","NORAD_CAT_ID":"46565","BSTAR":"0.00009758600000","MEAN_MOTION":"15.06392250","REF_FRAME":"TEME","CLASSIFICATION_TYPE":"U","MEAN_ANOMALY":"278.7426","TLE_LINE1":"1 46565U 20070AK  22196.79465885  .00001172  00000-0  97586-4 0  9997","EPHEMERIS_TYPE":"0","TLE_LINE2":"2 46565  53.0560  20.2247 0001323  81.3712 278.7426 15.06392250 98887","RCS_SIZE":"LARGE","ELEMENT_SET_NO":"999","ARG_OF_PERICENTER":"81.3712","SITE":"AFETR","PERIOD":"95.593","MEAN_MOTION_DDOT":"0.0000000000000","TIME_SYSTEM":"UTC","MEAN_MOTION_DOT":"0.00001172","OBJECT_ID":"2020-070AK","REV_AT_EPOCH":"9888","LAUNCH_DATE":"2020-10-06","SEMIMAJOR_AXIS":"6925.372","EPOCH":"2022-07-15T19:04:18.524640","DECAY_DATE":null,"OBJECT_TYPE":"PAYLOAD","PERIAPSIS":"546.321","FILE":"3514839","INCLINATION":"53.0560"},{"PERIAPSIS":"546.072","OBJECT_TYPE":"PAYLOAD","DECAY_DATE":null,"FILE":"3514839","INCLINATION":"53.0561","EPOCH":"2022-07-15T18:43:05.460384","SEMIMAJOR_AXIS":"6925.350","OBJECT_ID":"2020-070AL","MEAN_MOTION_DOT":"0.00005671","TIME_SYSTEM":"UTC","MEAN_MOTION_DDOT":"0.0000000000000","LAUNCH_DATE":"2020-10-06","REV_AT_EPOCH":"9888","PERIOD":"95.592","SITE":"AFETR","ELEMENT_SET_NO":"999","ARG_OF_PERICENTER":"73.4916","RCS_SIZE":"LARGE","TLE_LINE2":"2 46566  53.0561  20.2737 0001651  73.4916 286.6255 15.06399511 98880","CLASSIFICATION_TYPE":"U","REF_FRAME":"TEME","MEAN_MOTION":"15.06399511","EPHEMERIS_TYPE":"0","TLE_LINE1":"1 46566U 20070AL  22196.77992431  .00005671  00000-0  39934-3 0  9998","MEAN_ANOMALY":"286.6255","BSTAR":"0.00039934000000","NORAD_CAT_ID":"46566","GP_ID":"208200547","OBJECT_NAME":"STARLINK-1740","RA_OF_ASC_NODE":"20.2737","COUNTRY_CODE":"US","MEAN_ELEMENT_THEORY":"SGP4","APOAPSIS":"548.358","ECCENTRICITY":"0.00016510","CENTER_NAME":"EARTH"},{"MEAN_ELEMENT_THEORY":"SGP4","COUNTRY_CODE":"US","APOAPSIS":"548.203","ECCENTRICITY":"0.00013850","CENTER_NAME":"EARTH","GP_ID":"208200798","OBJECT_NAME":"STARLINK-1741","RA_OF_ASC_NODE":"20.1424","BSTAR":"0.00030417000000","NORAD_CAT_ID":"46567","TLE_LINE1":"1 46567U 20070AM  22196.80941190  .00004251  00000-0  30417-3 0  9999","EPHEMERIS_TYPE":"0","MEAN_ANOMALY":"272.9864","CLASSIFICATION_TYPE":"U","REF_FRAME":"TEME","MEAN_MOTION":"15.06390148","RCS_SIZE":"LARGE","TLE_LINE2":"2 46567  53.0540  20.1424 0001385  87.1284 272.9864 15.06390148 98896","PERIOD":"95.593","SITE":"AFETR","ARG_OF_PERICENTER":"87.1284","ELEMENT_SET_NO":"999","LAUNCH_DATE":"2020-10-06","REV_AT_EPOCH":"9889","OBJECT_ID":"2020-070AM","MEAN_MOTION_DOT":"0.00004251","TIME_SYSTEM":"UTC","MEAN_MOTION_DDOT":"0.0000000000000","EPOCH":"2022-07-15T19:25:33.188160","SEMIMAJOR_AXIS":"6925.379","FILE":"3514839","INCLINATION":"53.0540","PERIAPSIS":"546.285","OBJECT_TYPE":"PAYLOAD","DECAY_DATE":null},{"TLE_LINE1":"1 46569U 20070AP  22196.82414673 -.00000012  00000-0  18128-4 0  9992","EPHEMERIS_TYPE":"0","MEAN_ANOMALY":"291.2055","CLASSIFICATION_TYPE":"U","REF_FRAME":"TEME","MEAN_MOTION":"15.06390091","RCS_SIZE":"LARGE","TLE_LINE2":"2 46569  53.0557  20.0803 0001699  68.9116 291.2055 15.06390091 98898","COUNTRY_CODE":"US","MEAN_ELEMENT_THEORY":"SGP4","APOAPSIS":"548.421","CENTER_NAME":"EARTH","ECCENTRICITY":"0.00016990","GP_ID":"208199547","OBJECT_NAME":"STARLINK-1747","RA_OF_ASC_NODE":"20.0803","BSTAR":"0.00001812800000","NORAD_CAT_ID":"46569","EPOCH":"2022-07-15T19:46:46.277472","SEMIMAJOR_AXIS":"6925.379","FILE":"3514839","INCLINATION":"53.0557","OBJECT_TYPE":"PAYLOAD","PERIAPSIS":"546.067","DECAY_DATE":null,"PERIOD":"95.593","SITE":"AFETR","ARG_OF_PERICENTER":"68.9116","ELEMENT_SET_NO":"999","LAUNCH_DATE":"2020-10-06","REV_AT_EPOCH":"9889","OBJECT_ID":"2020-070AP","MEAN_MOTION_DOT":"-0.00000012","TIME_SYSTEM":"UTC","MEAN_MOTION_DDOT":"0.0000000000000"},{"MEAN_ANOMALY":"233.1769","TLE_LINE1":"1 46570U 20070AQ  22196.83435621  .00018324  00000-0  11957-2 0  9996","EPHEMERIS_TYPE":"0","MEAN_MOTION":"15.07922351","REF_FRAME":"TEME","CLASSIFICATION_TYPE":"U","TLE_LINE2":"2 46570  53.0551  19.7370 0002405 126.9441 233.1769 15.07922351 98898","RCS_SIZE":"LARGE","CENTER_NAME":"EARTH","ECCENTRICITY":"0.00024050","APOAPSIS":"544.216","COUNTRY_CODE":"US","MEAN_ELEMENT_THEORY":"SGP4","RA_OF_ASC_NODE":"19.7370","GP_ID":"208199796","OBJECT_NAME":"STARLINK-1748","NORAD_CAT_ID":"46570","BSTAR":"0.00119570000000","SEMIMAJOR_AXIS":"6920.687","EPOCH":"2022-07-15T20:01:28.376544","INCLINATION":"53.0551","FILE":"3514839","DECAY_DATE":null,"OBJECT_TYPE":"PAYLOAD","PERIAPSIS":"540.887","ELEMENT_SET_NO":"999","ARG_OF_PERICENTER":"126.9441","SITE":"AFETR","PERIOD":"95.496","REV_AT_EPOCH":"9889","LAUNCH_DATE":"2020-10-06","MEAN_MOTION_DDOT":"0.0000000000000","TIME_SYSTEM":"UTC","MEAN_MOTION_DOT":"0.00018324","OBJECT_ID":"2020-070AQ"},{"SEMIMAJOR_AXIS":"6925.357","EPOCH":"2022-07-15T20:41:08.668032","INCLINATION":"53.0537","FILE":"3514839","OBJECT_TYPE":"PAYLOAD","PERIAPSIS":"546.015","DECAY_DATE":null,"PERIOD":"95.592","ELEMENT_SET_NO":"999","ARG_OF_PERICENTER":"68.6415","SITE":"AFETR","REV_AT_EPOCH":"9861","LAUNCH_DATE":"2020-10-06","MEAN_MOTION_DOT":"0.00004349","OBJECT_ID":"2020-070AS","MEAN_MOTION_DDOT":"0.0000000000000","TIME_SYSTEM":"UTC","EPHEMERIS_TYPE":"0","TLE_LINE1":"1 46572U 20070AS  22196.86190588  .00004349  00000-0  31071-3 0  9993","MEAN_ANOMALY":"291.4759","CLASSIFICATION_TYPE":"U","MEAN_MOTION":"15.06397278","REF_FRAME":"TEME","RCS_SIZE":"LARGE","TLE_LINE2":"2 46572  53.0537  39.9053 0001743  68.6415 291.4759 15.06397278 98612","APOAPSIS":"548.429","COUNTRY_CODE":"US","MEAN_ELEMENT_THEORY":"SGP4","CENTER_NAME":"EARTH","ECCENTRICITY":"0.00017430","GP_ID":"208201048","OBJECT_NAME":"STARLINK-1531","RA_OF_ASC_NODE":"39.9053","BSTAR":"0.00031071000000","NORAD_CAT_ID":"46572"}];
